{
  "links" : {
    "next" : "https://api.nasa.gov/neo/rest/v1/feed?start_date=2000-07-16&end_date=2000-07-16&detailed=true&api_key=t0TVs3DtDT2H8Oy2Zy8m2eVrNsAVKAexjcZXUckd",
    "prev" : "https://api.nasa.gov/neo/rest/v1/feed?start_date=2000-07-14&end_date=2000-07-14&detailed=true&api_key=t0TVs3DtDT2H8Oy2Zy8m2eVrNsAVKAexjcZXUckd",
    "self" : "https://api.nasa.gov/neo/rest/v1/feed?start_date=2000-07-15&end_date=2000-07-15&detailed=true&api_key=t0TVs3DtDT2H8Oy2Zy8m2eVrNsAVKAexjcZXUckd"
  },
  "element_count" : 3,
  "near_earth_objects" : {
    "2000-07-15" : [ {
      "links" : {
        "self" : "https://api.nasa.gov/neo/rest/v1/neo/3743615?api_key=t0TVs3DtDT2H8Oy2Zy8m2eVrNsAVKAexjcZXUckd"
      },
      "neo_reference_id" : "3743615",
      "name" : "(2016 CM194)",
      "nasa_jpl_url" : "http://ssd.jpl.nasa.gov/sbdb.cgi?sstr=3743615",
      "absolute_magnitude_h" : 27.7,
      "estimated_diameter" : {
        "kilometers" : {
          "estimated_diameter_min" : 0.0076657557,
          "estimated_diameter_max" : 0.0171411509
        },
        "meters" : {
          "estimated_diameter_min" : 7.6657557353,
          "estimated_diameter_max" : 17.1411509231
        },
        "miles" : {
          "estimated_diameter_min" : 0.0047632783,
          "estimated_diameter_max" : 0.0106510141
        },
        "feet" : {
          "estimated_diameter_min" : 25.1501180466,
          "estimated_diameter_max" : 56.2373735944
        }
      },
      "is_potentially_hazardous_asteroid" : false,
      "close_approach_data" : [ {
        "close_approach_date" : "2000-07-15",
        "epoch_date_close_approach" : 963644400000,
        "relative_velocity" : {
          "kilometers_per_second" : "6.3760728151",
          "kilometers_per_hour" : "22953.8621343864",
          "miles_per_hour" : "14262.6372801136"
        },
        "miss_distance" : {
          "astronomical" : "0.4631618027",
          "lunar" : "180.1699371338",
          "kilometers" : "69288016",
          "miles" : "43053580"
        },
        "orbiting_body" : "Earth"
      } ],
      "orbital_data" : {
        "orbit_id" : "5",
        "orbit_determination_date" : "2017-04-06 08:28:20",
        "orbit_uncertainty" : "6",
        "minimum_orbit_intersection" : ".000942856",
        "jupiter_tisserand_invariant" : "4.272",
        "epoch_osculation" : "2458000.5",
        "eccentricity" : ".4566361189311688",
        "semi_major_axis" : "1.57658586212522",
        "inclination" : "7.295785193016767",
        "ascending_node_longitude" : "323.6160817249433",
        "orbital_period" : "723.0608851708147",
        "perihelion_distance" : ".8566598128826087",
        "perihelion_argument" : "234.8662745908226",
        "aphelion_distance" : "2.296511911367831",
        "perihelion_time" : "2458195.155677015352",
        "mean_anomaly" : "263.0841729061694",
        "mean_motion" : ".4978833835202608",
        "equinox" : "J2000"
      }
    }, {
      "links" : {
        "self" : "https://api.nasa.gov/neo/rest/v1/neo/3266944?api_key=t0TVs3DtDT2H8Oy2Zy8m2eVrNsAVKAexjcZXUckd"
      },
      "neo_reference_id" : "3266944",
      "name" : "(2005 BG28)",
      "nasa_jpl_url" : "http://ssd.jpl.nasa.gov/sbdb.cgi?sstr=3266944",
      "absolute_magnitude_h" : 25.6,
      "estimated_diameter" : {
        "kilometers" : {
          "estimated_diameter_min" : 0.0201629919,
          "estimated_diameter_max" : 0.0450858206
        },
        "meters" : {
          "estimated_diameter_min" : 20.1629919443,
          "estimated_diameter_max" : 45.0858206172
        },
        "miles" : {
          "estimated_diameter_min" : 0.0125286985,
          "estimated_diameter_max" : 0.0280150214
        },
        "feet" : {
          "estimated_diameter_min" : 66.1515504905,
          "estimated_diameter_max" : 147.9193637137
        }
      },
      "is_potentially_hazardous_asteroid" : false,
      "close_approach_data" : [ {
        "close_approach_date" : "2000-07-15",
        "epoch_date_close_approach" : 963644400000,
        "relative_velocity" : {
          "kilometers_per_second" : "8.6273206957",
          "kilometers_per_hour" : "31058.3545043933",
          "miles_per_hour" : "19298.4536641326"
        },
        "miss_distance" : {
          "astronomical" : "0.0599710607",
          "lunar" : "23.328742981",
          "kilometers" : "8971543",
          "miles" : "5574658.5"
        },
        "orbiting_body" : "Earth"
      } ],
      "orbital_data" : {
        "orbit_id" : "10",
        "orbit_determination_date" : "2017-04-06 09:11:31",
        "orbit_uncertainty" : "7",
        "minimum_orbit_intersection" : ".0106174",
        "jupiter_tisserand_invariant" : "5.933",
        "epoch_osculation" : "2458000.5",
        "eccentricity" : ".2272553636804437",
        "semi_major_axis" : "1.025627036789493",
        "inclination" : "6.134197098300142",
        "ascending_node_longitude" : "313.4912317701367",
        "orbital_period" : "379.3871509568529",
        "perihelion_distance" : ".7925477915434009",
        "perihelion_argument" : "80.87904335906639",
        "aphelion_distance" : "1.258706282035585",
        "perihelion_time" : "2457880.828412396710",
        "mean_anomaly" : "113.55622199784",
        "mean_motion" : ".9488987676362878",
        "equinox" : "J2000"
      }
    }, {
      "links" : {
        "self" : "https://api.nasa.gov/neo/rest/v1/neo/3767009?api_key=t0TVs3DtDT2H8Oy2Zy8m2eVrNsAVKAexjcZXUckd"
      },
      "neo_reference_id" : "3767009",
      "name" : "(2017 BS6)",
      "nasa_jpl_url" : "http://ssd.jpl.nasa.gov/sbdb.cgi?sstr=3767009",
      "absolute_magnitude_h" : 23.1,
      "estimated_diameter" : {
        "kilometers" : {
          "estimated_diameter_min" : 0.063760979,
          "estimated_diameter_max" : 0.1425738833
        },
        "meters" : {
          "estimated_diameter_min" : 63.7609789875,
          "estimated_diameter_max" : 142.5738833281
        },
        "miles" : {
          "estimated_diameter_min" : 0.0396192233,
          "estimated_diameter_max" : 0.0885912765
        },
        "feet" : {
          "estimated_diameter_min" : 209.1895703015,
          "estimated_diameter_max" : 467.7620993781
        }
      },
      "is_potentially_hazardous_asteroid" : false,
      "close_approach_data" : [ {
        "close_approach_date" : "2000-07-15",
        "epoch_date_close_approach" : 963644400000,
        "relative_velocity" : {
          "kilometers_per_second" : "8.9398179745",
          "kilometers_per_hour" : "32183.344708313",
          "miles_per_hour" : "19997.4788272293"
        },
        "miss_distance" : {
          "astronomical" : "0.0640030468",
          "lunar" : "24.8971862793",
          "kilometers" : "9574720",
          "miles" : "5949455.5"
        },
        "orbiting_body" : "Earth"
      } ],
      "orbital_data" : {
        "orbit_id" : "12",
        "orbit_determination_date" : "2017-08-01 06:18:19",
        "orbit_uncertainty" : "4",
        "minimum_orbit_intersection" : ".0538937",
        "jupiter_tisserand_invariant" : "5.266",
        "epoch_osculation" : "2458000.5",
        "eccentricity" : ".1795595992456054",
        "semi_major_axis" : "1.196104811239497",
        "inclination" : "13.78959055122393",
        "ascending_node_longitude" : "298.8175806391617",
        "orbital_period" : "477.8067522721435",
        "perihelion_distance" : ".9813327106775923",
        "perihelion_argument" : "293.4509005644989",
        "aphelion_distance" : "1.410876911801401",
        "perihelion_time" : "2457892.462208934788",
        "mean_anomaly" : "81.40028285185032",
        "mean_motion" : ".7534426800962315",
        "equinox" : "J2000"
      }
    } ]
  }
}